#dP2024  8  6 12  0  0.00000000      96 __u+U IGS20 EXT  IAC
## 2326 216000.00000000   900.00000000 60528 0.5000000000000
+   53   G02G03G04G05G06G07G08G09G10G11G12G13G14G15G16G17G18
+        G19G20G21G22G23G24G25G26G27G28G29G30G31G32R01R02R03
+        R04R05R07R08R09R11R12R14R15R16R17R18R19R20R21R22R24
+        R25R26  0  0  0  0  0  0  0  0  0  0  0  0  0  0  0
+          0  0  0  0  0  0  0  0  0  0  0  0  0  0  0  0  0
++         8  9  8  7  8  9  8  7  9  7  8 10  8  9  8  8  7
++         6  8  9  8  9  7  8  9  9  7  9  8  7  9  7  6  8
++         8  7  7  8  8  8  9  7  8  7  7  6  7  9  8  7  8
++         8  7  0  0  0  0  0  0  0  0  0  0  0  0  0  0  0
++         0  0  0  0  0  0  0  0  0  0  0  0  0  0  0  0  0
%c M  cc GPS ccc cccc cccc cccc cccc ccccc ccccc ccccc ccccc
%c cc cc ccc ccc cccc cccc cccc cccc ccccc ccccc ccccc ccccc
%f  0.0000000  0.000000000  0.00000000000  0.000000000000000
%f  0.0000000  0.000000000  0.00000000000  0.000000000000000
%i    0    0    0    0      0      0      0      0         0
%i    0    0    0    0      0      0      0      0         0
/* IAC                                ULTRA-RAPID PREDICTION
/* S/V CLOCKS ARE ALIGNED TO GNSS TIME                      
/* G:C1WC2W R:C1PC2P E:C1XC5X C:C2IC6I J:C1CC2S             
/* PCV:IGS20_2317 OL/AL:FES2004  NONE     YN ORB:CoN CLK:CoN
*  2024 08 07  1 30  0.00000000
PG02 -18965.436847 -13528.346814 -12572.325616   -384.059146
PG03 -12474.522992 -19698.259070  12662.491657    489.859862
PG04 -12254.971056  -9319.195834  21670.546101    419.134997
PG05   5071.166747  25925.809749   2136.109589   -182.344689
PG06 -16734.649821   7545.638354  19297.990122    114.558286
PG07 -25810.964953  -6083.698087  -3399.861882    -55.955146
PG08  -2402.365240 -17322.494920 -19978.090020    305.649904
PG09 -19925.340288   1868.014093  17400.646689    303.819492
PG10  11582.120610 -11662.563487 -20573.704634    -86.714487
PG11  -2138.497124  15235.172530  21683.881099   -717.578864
PG12  10050.270901  22319.416926  10086.643970   -528.362841
PG13  -7660.096754  18951.930855 -17045.580057    669.280108
PG14 -14150.194866   7538.314245 -21103.059570    466.562388
PG15   4900.845870  17230.531566 -20071.577248    189.709014
PG16    667.141281 -25740.703446   5125.667671   -215.578444
PG17 -22462.849743  13344.986149  -4824.256566    660.836252
PG18  25615.928934   5516.322422  -4978.118952   -643.938255
PG19 -19923.768095  16892.283327   3180.902399    521.088578
PG20   -333.683512  23451.236109  12671.362198    371.950824
PG21 -14580.854707 -15171.273521 -16384.541441    104.428344
PG22 -10668.154630  16348.514033 -17727.334062    -48.419471
PG23  15357.418778   2198.680267 -21561.812347    291.481821
PG24  16798.378867  15049.035850 -14776.783870   -485.646837
PG25  15488.898027  12613.538740  17295.051624    499.131337
PG26   7135.112698 -19313.219672  16419.754542    105.539258
PG27   8521.766962 -20839.046330 -14039.004848    -32.635647
PG28  18599.235984  -7200.566909  17531.482852   -362.431288
PG29  18040.487044   2886.584427  19276.246869   -585.501177
PG30 -22887.920400   2669.929164 -13282.985307   -344.492360
PG31   7833.913033 -13307.807812  21415.167812   -226.113902
PG32  21112.443928 -15401.098586  -3886.320293   -607.572037
PR01   9538.483712 -23429.505955   3330.551135     93.728093
PR02    -87.557468 -17874.098276  18207.797282    -24.013471
PR03 -10832.579051  -2500.925260  23003.734986    105.157065
PR04 -15236.906765  13681.354995  15244.207914    248.738968
PR05 -11746.972153  22646.020997   -699.068594    135.691417
PR07  11054.597636   1934.080853 -22866.038159     88.265589
PR08  15149.466684 -13996.831370 -14928.491154     -6.298959
PR09  12411.155905  21801.088601  -4344.367982    201.974989
PR11  12791.030680    351.355703  22077.577278     15.723266
PR12    148.104443 -16760.806762  19254.857574     43.338567
PR14 -16867.260393 -14532.217278 -12452.194472     26.769481
PR15 -12066.383832   1239.505446 -22415.162321     77.110449
PR16   -112.546802  16545.205812 -19383.641514     28.029241
PR17 -23352.753851  -3460.712131  -9590.771099    111.301871
PR18 -24290.312800   3790.183989   6890.308159    155.758972
PR19 -14790.542426   8432.859366  18985.958191   -286.641933
PR20   8018.905536   9904.969453  22096.247130   -117.248031
PR21  23127.530384   3855.685267  10087.856782   -123.864078
PR22  23930.812761  -3833.130683  -7923.900879     74.499819
PR24  -9053.297176  -9874.603777 -21686.916699    -66.785335
PR25  23401.700098   4337.100558   9218.691300    -99.679617
PR26  15038.929822 -12902.735483 -16059.229120      8.309336
*  2024 08 07  1 45  0.00000000
PG02 -17338.565715 -13369.997337 -14782.602186   -384.052339
PG03 -12623.721751 -21022.309661  10185.013317    489.873571
PG04 -10396.302031 -10968.637157  21856.893720    419.141778
PG05   4733.590949  25577.656475   4980.383054   -182.345781
PG06 -18706.010525   6831.202501  17690.625456    114.536729
PG07 -26010.136693  -6405.807165   -603.366006    -55.949430
PG08   -750.942702 -18792.709256 -18694.378706    305.663392
PG09 -18537.496722    292.642918  18950.297231    303.833365
PG10  12211.832640  -9296.806339 -21418.252413    -86.724135
PG11  -4487.446884  14426.355770  21871.985170   -717.584137
PG12   9988.972866  23382.589365   7477.090057   -528.365515
PG13  -9228.698553  19864.029141 -15070.689908    669.282152
PG14 -14705.969379   5150.006121 -21457.317937    466.570295
PG15   3478.014475  18837.652777 -18839.685640    189.712929
PG16   1061.583809 -24997.650134   7874.310388   -215.569095
PG17 -22024.750433  12692.858616  -7566.782368    660.828186
PG18  25943.162371   5827.614808  -2145.691810   -643.941284
PG19 -20261.034094  16811.215837    296.520885    521.093290
PG20  -1141.709569  22099.859527  14860.728302    371.950464
PG21 -12587.973510 -14883.015102 -18072.059982    104.426341
PG22 -11105.583111  14208.038601 -19182.319415    -48.423318
PG23  15936.330788   4547.823240 -20779.220910    291.489687
PG24  15071.180018  14907.914249 -16677.875705   -485.647668
PG25  15794.416394  14524.186255  15482.238327    499.131578
PG26   7972.508944 -17460.294709  18048.765702    105.532558
PG27   9720.684754 -21678.456132 -11714.919090    -32.636183
PG28  20396.780739  -6556.798778  15689.441831   -362.444921
PG29  16327.890985   4390.375589  20467.769916   -585.499229
PG30 -24162.731161   2023.385479 -10989.796628   -344.486244
PG31  10172.328511 -12518.179203  20942.136878   -226.113591
PG32  20837.783503 -14775.394680  -6671.647211   -607.569659
PR01   9489.093049 -23685.176981    128.137134     93.729160
PR02    738.190569 -19818.059098  16042.348422    -24.013634
PR03  -9603.864421  -5057.275326  23124.570421    105.157655
PR04 -14233.473898  11925.891140  17520.796667    248.740554
PR05 -11533.590636  22626.614872   2524.743758    135.691945
PR07   9818.663328   4496.514836 -23072.815090     88.266293
PR08  14183.934195 -12244.994679 -17233.294500     -6.299125
PR09  12042.051654  21165.534392  -7425.766630    201.976981
PR11  14360.838027   2488.722414  20943.331774     15.722172
PR12   1504.320535 -14700.628210  20819.417475     43.338918
PR14 -17740.549329 -15587.065755  -9654.689090     26.769291
PR15 -13646.382527   -968.863279 -21505.715828     77.110119
PR16  -1487.033073  14464.567302 -20931.350769     28.029486
PR17 -21981.487051  -3395.564448 -12435.882968    111.304891
PR18 -24931.269945   4032.523334   3739.835621    155.760632
PR19 -17006.056782   8637.906435  16926.114763   -286.643174
PR20   5237.883948   9927.244419  22908.231040   -117.247998
PR21  21699.845634   3768.981462  12897.328427   -123.866886
PR22  24716.033339  -4004.693428  -4836.701285     74.493025
PR24  -6322.807201 -10034.225978 -22565.395808    -66.786638
PR25  22085.951182   4249.101485  12064.843168    -99.680719
PR26  14035.767489 -11034.131032 -18211.443718      8.311225
EOF
